EUTELSAT QUANTUM        
1 49056U 21069B   26028.71986737  .00000130  00000+0  00000+0 0  9990
2 49056   0.0106   9.5637 0003487 296.5160 128.7384  1.00272349 16529
EUTELSAT KONNECT VHTS   
1 53765U 22110A   26028.76641882  .00000020  00000+0  00000+0 0  9992
2 53765   0.0570  99.2608 0003252 188.5102 118.8371  1.00270002  5434
EUTELSAT HOTBIRD 13F    
1 54048U 22134A   26028.79489167  .00000090  00000+0  00000+0 0  9999
2 54048   0.0622 276.9371 0002065  76.8041  73.4410  1.00270405 11973
EUTELSAT HOTBIRD 13G    
1 54225U 22146A   26028.79489167  .00000090  00000+0  00000+0 0  9999
2 54225   0.0546 245.0171 0002040 305.4169 236.7394  1.00269189  6061
EUTELSAT 10B            
1 54259U 22157A   26028.79489167  .00000070  00000+0  00000+0 0  9996
2 54259   0.0574  98.2745 0000319 309.2452  16.6769  1.00263960 11628
EUTELSAT 36D            
1 59346U 24059A   26028.78378186  .00000159  00000+0  00000+0 0  9996
2 59346   0.0177  76.7274 0000757 239.6554 129.6621  1.00269902  6743
